OBJECT B                
1 51825U 22019B   26002.93733326  .00063317  00000+0  96300-3 0  9991
2 51825  97.3657  88.1255 0008104  20.2880 339.8694 15.54298621213935
